{
  "type": "FeatureCollection",
  "features": [
    {
      "type": "Feature",
      "properties": {
        "norad_id": 35885,
        "name": "COSMOS 2251 DEB",
        "group": "cosmos-2251-debris",
        "lat": 65.59160387877415,
        "lon": 82.10949407068816,
        "alt_km": 758.7930331237985,
        "timestamp": "2025-12-09T05:43:21.123400+00:00",
        "meta_object_name": "COSMOS 2251 DEB",
        "meta_object_id": "1993-036ATY",
        "meta_epoch": "2025-12-06T15:25:19.901280",
        "meta_mean_motion": 14.37501399,
        "meta_eccentricity": 0.0022973,
        "meta_inclination": 74.0277,
        "meta_ra_of_asc_node": 306.0211,
        "meta_arg_of_pericenter": 28.0952,
        "meta_mean_anomaly": 332.1436,
        "meta_ephemeris_type": 0,
        "meta_classification_type": "U",
        "meta_norad_cat_id": 35885,
        "meta_element_set_no": 999,
        "meta_rev_at_epoch": 64928,
        "meta_bstar": 0.00059498548,
        "meta_mean_motion_dot": 1.761e-05,
        "meta_mean_motion_ddot": 0,
        "tle_line1": "1 35885U 93036ATY 25340.64259145  .00001761  00000+0  59499-3 0  9993",
        "tle_line2": "2 35885  74.0277 306.0211 0022973  28.0952 332.1436 14.37501399649283"
      },
      "geometry": {
        "type": "Point",
        "coordinates": [
          82.10949407068816,
          65.59160387877415
        ]
      }
    },
    {
      "type": "Feature",
      "properties": {
        "norad_id": 35888,
        "name": "COSMOS 2251 DEB",
        "group": "cosmos-2251-debris",
        "lat": 18.43365119472594,
        "lon": 177.85676399852937,
        "alt_km": 667.3535829197026,
        "timestamp": "2025-12-09T05:43:21.123411+00:00",
        "meta_object_name": "COSMOS 2251 DEB",
        "meta_object_id": "1993-036AUB",
        "meta_epoch": "2025-12-08T19:06:44.470656",
        "meta_mean_motion": 14.58299224,
        "meta_eccentricity": 0.0048367,
        "meta_inclination": 74.0336,
        "meta_ra_of_asc_node": 4.1737,
        "meta_arg_of_pericenter": 137.515,
        "meta_mean_anomaly": 222.9775,
        "meta_ephemeris_type": 0,
        "meta_classification_type": "U",
        "meta_norad_cat_id": 35888,
        "meta_element_set_no": 999,
        "meta_rev_at_epoch": 86216,
        "meta_bstar": 0.00068396,
        "meta_mean_motion_dot": 3.186e-05,
        "meta_mean_motion_ddot": 0,
        "tle_line1": "1 35888U 93036AUB 25342.79634804  .00003186  00000+0  68396-3 0  9992",
        "tle_line2": "2 35888  74.0336   4.1737 0048367 137.5150 222.9775 14.58299224862162"
      },
      "geometry": {
        "type": "Point",
        "coordinates": [
          177.85676399852937,
          18.43365119472594
        ]
      }
    },
    {
      "type": "Feature",
      "properties": {
        "norad_id": 35890,
        "name": "COSMOS 2251 DEB",
        "group": "cosmos-2251-debris",
        "lat": -31.974367676158096,
        "lon": 79.75857826051256,
        "alt_km": 743.1881477316665,
        "timestamp": "2025-12-09T05:43:21.123421+00:00",
        "meta_object_name": "COSMOS 2251 DEB",
        "meta_object_id": "1993-036AUD",
        "meta_epoch": "2025-12-08T00:44:22.816032",
        "meta_mean_motion": 14.57358592,
        "meta_eccentricity": 0.00535586,
        "meta_inclination": 73.9367,
        "meta_ra_of_asc_node": 251.7044,
        "meta_arg_of_pericenter": 16.9796,
        "meta_mean_anomaly": 343.3143,
        "meta_ephemeris_type": 0,
        "meta_classification_type": "U",
        "meta_norad_cat_id": 35890,
        "meta_element_set_no": 999,
        "meta_rev_at_epoch": 65082,
        "meta_bstar": 0.0025122755,
        "meta_mean_motion_dot": 0.00011598,
        "meta_mean_motion_ddot": 0,
        "tle_line1": "1 35890U 93036AUD 25342.03081963  .00011598  00000+0  25123-2 0  9990",
        "tle_line2": "2 35890  73.9367 251.7044 0053558  16.9796 343.3143 14.57358592650820"
      },
      "geometry": {
        "type": "Point",
        "coordinates": [
          79.75857826051256,
          -31.974367676158096
        ]
      }
    },
    {
      "type": "Feature",
      "properties": {
        "norad_id": 35891,
        "name": "COSMOS 2251 DEB",
        "group": "cosmos-2251-debris",
        "lat": -53.90145357588352,
        "lon": -55.42286896449856,
        "alt_km": 443.34851917821834,
        "timestamp": "2025-12-09T05:43:21.123431+00:00",
        "meta_object_name": "COSMOS 2251 DEB",
        "meta_object_id": "1993-036AUE",
        "meta_epoch": "2025-12-07T15:05:39.688512",
        "meta_mean_motion": 15.32671371,
        "meta_eccentricity": 0.00448916,
        "meta_inclination": 73.9888,
        "meta_ra_of_asc_node": 104.8337,
        "meta_arg_of_pericenter": 235.5945,
        "meta_mean_anomaly": 124.1012,
        "meta_ephemeris_type": 0,
        "meta_classification_type": "U",
        "meta_norad_cat_id": 35891,
        "meta_element_set_no": 999,
        "meta_rev_at_epoch": 67142,
        "meta_bstar": 0.0020729594,
        "meta_mean_motion_dot": 0.00068094,
        "meta_mean_motion_ddot": 0,
        "tle_line1": "1 35891U 93036AUE 25341.62893158  .00068094  00000+0  20730-2 0  9994",
        "tle_line2": "2 35891  73.9888 104.8337 0044891 235.5945 124.1012 15.32671371671423"
      },
      "geometry": {
        "type": "Point",
        "coordinates": [
          -55.42286896449856,
          -53.90145357588352
        ]
      }
    },
    {
      "type": "Feature",
      "properties": {
        "norad_id": 35895,
        "name": "COSMOS 2251 DEB",
        "group": "cosmos-2251-debris",
        "lat": 46.07937923213136,
        "lon": 11.016049125341013,
        "alt_km": 779.731318133945,
        "timestamp": "2025-12-09T05:43:21.123442+00:00",
        "meta_object_name": "COSMOS 2251 DEB",
        "meta_object_id": "1993-036AUJ",
        "meta_epoch": "2025-12-07T07:14:26.762496",
        "meta_mean_motion": 14.01487367,
        "meta_eccentricity": 0.0198387,
        "meta_inclination": 74.0487,
        "meta_ra_of_asc_node": 357.0973,
        "meta_arg_of_pericenter": 96.746,
        "meta_mean_anomaly": 265.6293,
        "meta_ephemeris_type": 0,
        "meta_classification_type": "U",
        "meta_norad_cat_id": 35895,
        "meta_element_set_no": 999,
        "meta_rev_at_epoch": 58936,
        "meta_bstar": 0.0023068706,
        "meta_mean_motion_dot": 4.118e-05,
        "meta_mean_motion_ddot": 0,
        "tle_line1": "1 35895U 93036AUJ 25341.30169864  .00004118  00000+0  23069-2 0  9998",
        "tle_line2": "2 35895  74.0487 357.0973 0198387  96.7460 265.6293 14.01487367589369"
      },
      "geometry": {
        "type": "Point",
        "coordinates": [
          11.016049125341013,
          46.07937923213136
        ]
      }
    },
    {
      "type": "Feature",
      "properties": {
        "norad_id": 35898,
        "name": "COSMOS 2251 DEB",
        "group": "cosmos-2251-debris",
        "lat": -2.817922535898405,
        "lon": 125.34198574107084,
        "alt_km": 589.7673096875633,
        "timestamp": "2025-12-09T05:43:21.123452+00:00",
        "meta_object_name": "COSMOS 2251 DEB",
        "meta_object_id": "1993-036AUM",
        "meta_epoch": "2025-12-07T04:47:26.153664",
        "meta_mean_motion": 14.94573196,
        "meta_eccentricity": 0.0079228,
        "meta_inclination": 73.9914,
        "meta_ra_of_asc_node": 308.651,
        "meta_arg_of_pericenter": 93.6703,
        "meta_mean_anomaly": 282.8224,
        "meta_ephemeris_type": 0,
        "meta_classification_type": "U",
        "meta_norad_cat_id": 35898,
        "meta_element_set_no": 999,
        "meta_rev_at_epoch": 66727,
        "meta_bstar": 0.0011539651,
        "meta_mean_motion_dot": 0.00013273,
        "meta_mean_motion_ddot": 0,
        "tle_line1": "1 35898U 93036AUM 25341.19960826  .00013273  00000+0  11540-2 0  9998",
        "tle_line2": "2 35898  73.9914 308.6510 0079228  93.6703 282.8224 14.94573196667272"
      },
      "geometry": {
        "type": "Point",
        "coordinates": [
          125.34198574107084,
          -2.817922535898405
        ]
      }
    },
    {
      "type": "Feature",
      "properties": {
        "norad_id": 35901,
        "name": "COSMOS 2251 DEB",
        "group": "cosmos-2251-debris",
        "lat": 31.00167433244638,
        "lon": 39.993169952069174,
        "alt_km": 540.9917839896661,
        "timestamp": "2025-12-09T05:43:21.123463+00:00",
        "meta_object_name": "COSMOS 2251 DEB",
        "meta_object_id": "1993-036AUQ",
        "meta_epoch": "2025-12-07T10:36:21.692736",
        "meta_mean_motion": 15.06319673,
        "meta_eccentricity": 0.00066034,
        "meta_inclination": 74.0121,
        "meta_ra_of_asc_node": 33.7639,
        "meta_arg_of_pericenter": 0.5644,
        "meta_mean_anomaly": 13.1472,
        "meta_ephemeris_type": 0,
        "meta_classification_type": "U",
        "meta_norad_cat_id": 35901,
        "meta_element_set_no": 999,
        "meta_rev_at_epoch": 86047,
        "meta_bstar": 0.0047775116,
        "meta_mean_motion_dot": 0.0007096,
        "meta_mean_motion_ddot": 0,
        "tle_line1": "1 35901U 93036AUQ 25341.44191774  .00070960  00000+0  47775-2 0  9994",
        "tle_line2": "2 35901  74.0121  33.7639 0006603   0.5644  13.1472 15.06319673860474"
      },
      "geometry": {
        "type": "Point",
        "coordinates": [
          39.993169952069174,
          31.00167433244638
        ]
      }
    }
  ]
}